start=new Date('2023-04-10T00:00:00.000Z').valueOf();
sats=[{"EPHEMERIS_TYPE":"0","CENTER_NAME":"EARTH","CLASSIFICATION_TYPE":"U","COUNTRY_CODE":"US","TLE_LINE2":"2 53658  97.6549 341.9639 0004303  75.0990 285.0710 15.01261202 33485","TLE_LINE1":"1 53658U 22105L   23099.92333578  .00000721  00000-0  60697-4 0  9992","MEAN_MOTION":"15.01261202","SITE":"AFWTR","ARG_OF_PERICENTER":"75.0990","OBJECT_TYPE":"PAYLOAD","PERIAPSIS":"560.021","APOAPSIS":"565.995","OBJECT_ID":"2022-105L","REF_FRAME":"TEME","RCS_SIZE":"LARGE","MEAN_ANOMALY":"285.0710","MEAN_MOTION_DDOT":"0.0000000000000","INCLINATION":"97.6549","ECCENTRICITY":"0.00043030","NORAD_CAT_ID":"53658","GP_ID":"229810880","REV_AT_EPOCH":"3348","BSTAR":"0.00006069700000","DECAY_DATE":null,"LAUNCH_DATE":"2022-08-31","OBJECT_NAME":"STARLINK-4452","EPOCH":"2023-04-09T22:09:36.211392","SEMIMAJOR_AXIS":"6941.143","RA_OF_ASC_NODE":"341.9639","MEAN_MOTION_DOT":"0.00000721","FILE":"3884641","TIME_SYSTEM":"UTC","ELEMENT_SET_NO":"999","MEAN_ELEMENT_THEORY":"SGP4","PERIOD":"95.919"},{"RA_OF_ASC_NODE":"341.9662","EPOCH":"2023-04-09T22:12:15.971904","SEMIMAJOR_AXIS":"6941.129","OBJECT_NAME":"STARLINK-4463","LAUNCH_DATE":"2022-08-31","DECAY_DATE":null,"PERIOD":"95.919","MEAN_ELEMENT_THEORY":"SGP4","TIME_SYSTEM":"UTC","ELEMENT_SET_NO":"999","MEAN_MOTION_DOT":"0.00001242","FILE":"3884641","GP_ID":"229811124","REV_AT_EPOCH":"3348","NORAD_CAT_ID":"53659","ECCENTRICITY":"0.00050030","INCLINATION":"97.6553","MEAN_MOTION_DDOT":"0.0000000000000","BSTAR":"0.00010124000000","OBJECT_TYPE":"PAYLOAD","PERIAPSIS":"559.521","ARG_OF_PERICENTER":"69.5471","SITE":"AFWTR","RCS_SIZE":"LARGE","MEAN_ANOMALY":"290.6290","OBJECT_ID":"2022-105M","APOAPSIS":"566.467","REF_FRAME":"TEME","CENTER_NAME":"EARTH","EPHEMERIS_TYPE":"0","MEAN_MOTION":"15.01265762","TLE_LINE1":"1 53659U 22105M   23099.92518486  .00001242  00000-0  10124-3 0  9994","TLE_LINE2":"2 53659  97.6553 341.9662 0005003  69.5471 290.6290 15.01265762 33487","CLASSIFICATION_TYPE":"U","COUNTRY_CODE":"US"},{"TIME_SYSTEM":"UTC","ELEMENT_SET_NO":"999","MEAN_MOTION_DOT":"-0.00002350","FILE":"3884641","PERIOD":"95.918","MEAN_ELEMENT_THEORY":"SGP4","LAUNCH_DATE":"2022-08-31","OBJECT_NAME":"STARLINK-4473","DECAY_DATE":null,"RA_OF_ASC_NODE":"341.9574","EPOCH":"2023-04-09T22:01:35.559552","SEMIMAJOR_AXIS":"6941.100","BSTAR":"-0.00017831000000","ECCENTRICITY":"0.00026170","MEAN_MOTION_DDOT":"0.0000000000000","INCLINATION":"97.6548","REV_AT_EPOCH":"3348","GP_ID":"229809887","NORAD_CAT_ID":"53660","APOAPSIS":"564.781","OBJECT_ID":"2022-105N","REF_FRAME":"TEME","RCS_SIZE":"LARGE","MEAN_ANOMALY":"270.8825","SITE":"AFWTR","PERIAPSIS":"561.148","OBJECT_TYPE":"PAYLOAD","ARG_OF_PERICENTER":"89.2699","TLE_LINE2":"2 53660  97.6548 341.9574 0002617  89.2699 270.8825 15.01275264 33486","CLASSIFICATION_TYPE":"U","COUNTRY_CODE":"US","MEAN_MOTION":"15.01275264","TLE_LINE1":"1 53660U 22105N   23099.91777268 -.00002350  00000-0 -17831-3 0  9995","EPHEMERIS_TYPE":"0","CENTER_NAME":"EARTH"},{"RA_OF_ASC_NODE":"341.6330","SEMIMAJOR_AXIS":"6941.137","EPOCH":"2023-04-09T14:07:02.330688","OBJECT_NAME":"STARLINK-4472","LAUNCH_DATE":"2022-08-31","DECAY_DATE":null,"PERIOD":"95.919","MEAN_ELEMENT_THEORY":"SGP4","ELEMENT_SET_NO":"999","TIME_SYSTEM":"UTC","MEAN_MOTION_DOT":"0.00000432","FILE":"3884641","REV_AT_EPOCH":"3343","GP_ID":"229810632","NORAD_CAT_ID":"53661","ECCENTRICITY":"0.00045510","INCLINATION":"97.6551","MEAN_MOTION_DDOT":"0.0000000000000","BSTAR":"0.00003822400000","OBJECT_TYPE":"PAYLOAD","PERIAPSIS":"559.843","ARG_OF_PERICENTER":"80.2575","SITE":"AFWTR","MEAN_ANOMALY":"279.9163","RCS_SIZE":"LARGE","REF_FRAME":"TEME","OBJECT_ID":"2022-105P","APOAPSIS":"566.161","CENTER_NAME":"EARTH","EPHEMERIS_TYPE":"0","MEAN_MOTION":"15.01263116","TLE_LINE1":"1 53661U 22105P   23099.58822142  .00000432  00000-0  38224-4 0  9998","TLE_LINE2":"2 53661  97.6551 341.6330 0004551  80.2575 279.9163 15.01263116 33434","CLASSIFICATION_TYPE":"U","COUNTRY_CODE":"US"},{"REF_FRAME":"TEME","OBJECT_ID":"2022-105Q","APOAPSIS":"563.956","MEAN_ANOMALY":"259.8171","RCS_SIZE":"LARGE","SITE":"AFWTR","ARG_OF_PERICENTER":"100.3208","OBJECT_TYPE":"PAYLOAD","PERIAPSIS":"562.048","CLASSIFICATION_TYPE":"U","COUNTRY_CODE":"US","TLE_LINE2":"2 53662  97.6550 341.9529 0001375 100.3208 259.8171 15.01263179 33485","TLE_LINE1":"1 53662U 22105Q   23099.91407179  .00000447  00000-0  39362-4 0  9995","MEAN_MOTION":"15.01263179","EPHEMERIS_TYPE":"0","CENTER_NAME":"EARTH","MEAN_MOTION_DOT":"0.00000447","FILE":"3884641","ELEMENT_SET_NO":"999","TIME_SYSTEM":"UTC","MEAN_ELEMENT_THEORY":"SGP4","PERIOD":"95.919","DECAY_DATE":null,"LAUNCH_DATE":"2022-08-31","OBJECT_NAME":"STARLINK-4357","SEMIMAJOR_AXIS":"6941.137","EPOCH":"2023-04-09T21:56:15.802656","RA_OF_ASC_NODE":"341.9529","BSTAR":"0.00003936200000","INCLINATION":"97.6550","MEAN_MOTION_DDOT":"0.0000000000000","ECCENTRICITY":"0.00013750","NORAD_CAT_ID":"53662","REV_AT_EPOCH":"3348","GP_ID":"229810380"},{"SITE":"AFWTR","PERIAPSIS":"560.100","OBJECT_TYPE":"PAYLOAD","ARG_OF_PERICENTER":"86.1720","APOAPSIS":"565.904","OBJECT_ID":"2022-105R","REF_FRAME":"TEME","RCS_SIZE":"LARGE","MEAN_ANOMALY":"273.9982","EPHEMERIS_TYPE":"0","CENTER_NAME":"EARTH","TLE_LINE2":"2 53663  97.6558 341.9589 0004181  86.1720 273.9982 15.01263318 33480","COUNTRY_CODE":"US","CLASSIFICATION_TYPE":"U","MEAN_MOTION":"15.01263318","TLE_LINE1":"1 53663U 22105R   23099.91963231  .00000779  00000-0  65207-4 0  9997","LAUNCH_DATE":"2022-08-31","OBJECT_NAME":"STARLINK-4457","DECAY_DATE":null,"RA_OF_ASC_NODE":"341.9589","EPOCH":"2023-04-09T22:04:16.231584","SEMIMAJOR_AXIS":"6941.137","TIME_SYSTEM":"UTC","ELEMENT_SET_NO":"999","FILE":"3884641","MEAN_MOTION_DOT":"0.00000779","PERIOD":"95.919","MEAN_ELEMENT_THEORY":"SGP4","ECCENTRICITY":"0.00041810","INCLINATION":"97.6558","MEAN_MOTION_DDOT":"0.0000000000000","GP_ID":"229811625","REV_AT_EPOCH":"3348","NORAD_CAT_ID":"53663","BSTAR":"0.00006520700000"},{"CENTER_NAME":"EARTH","EPHEMERIS_TYPE":"0","MEAN_MOTION":"15.01255750","TLE_LINE1":"1 53664U 22105S   23099.91222102  .00002451  00000-0  19536-3 0  9995","TLE_LINE2":"2 53664  97.6555 341.9499 0000948 101.0941 259.0390 15.01255750 33486","COUNTRY_CODE":"US","CLASSIFICATION_TYPE":"U","PERIAPSIS":"562.367","OBJECT_TYPE":"PAYLOAD","ARG_OF_PERICENTER":"101.0941","SITE":"AFWTR","RCS_SIZE":"LARGE","MEAN_ANOMALY":"259.0390","OBJECT_ID":"2022-105S","APOAPSIS":"563.683","REF_FRAME":"TEME","GP_ID":"229811640","REV_AT_EPOCH":"3348","NORAD_CAT_ID":"53664","ECCENTRICITY":"0.00009480","INCLINATION":"97.6555","MEAN_MOTION_DDOT":"0.0000000000000","BSTAR":"0.00019536000000","RA_OF_ASC_NODE":"341.9499","EPOCH":"2023-04-09T21:53:35.896128","SEMIMAJOR_AXIS":"6941.160","OBJECT_NAME":"STARLINK-4471","LAUNCH_DATE":"2022-08-31","DECAY_DATE":null,"PERIOD":"95.920","MEAN_ELEMENT_THEORY":"SGP4","TIME_SYSTEM":"UTC","ELEMENT_SET_NO":"999","FILE":"3884641","MEAN_MOTION_DOT":"0.00002451"},{"SITE":"AFWTR","ARG_OF_PERICENTER":"105.9536","PERIAPSIS":"561.781","OBJECT_TYPE":"PAYLOAD","REF_FRAME":"TEME","OBJECT_ID":"2022-105T","APOAPSIS":"564.241","MEAN_ANOMALY":"254.1883","RCS_SIZE":"LARGE","EPHEMERIS_TYPE":"0","CENTER_NAME":"EARTH","CLASSIFICATION_TYPE":"U","COUNTRY_CODE":"US","TLE_LINE2":"2 53665  97.6554 341.9558 0001772 105.9536 254.1883 15.01260342 33487","TLE_LINE1":"1 53665U 22105T   23099.91617033  .00000142  00000-0  15624-4 0  9997","MEAN_MOTION":"15.01260342","DECAY_DATE":null,"OBJECT_NAME":"STARLINK-4334","LAUNCH_DATE":"2022-08-31","SEMIMAJOR_AXIS":"6941.146","EPOCH":"2023-04-09T21:59:17.116512","RA_OF_ASC_NODE":"341.9558","MEAN_MOTION_DOT":"0.00000142","FILE":"3884641","ELEMENT_SET_NO":"999","TIME_SYSTEM":"UTC","MEAN_ELEMENT_THEORY":"SGP4","PERIOD":"95.919","MEAN_MOTION_DDOT":"0.0000000000000","INCLINATION":"97.6554","ECCENTRICITY":"0.00017720","NORAD_CAT_ID":"53665","REV_AT_EPOCH":"3348","GP_ID":"229810133","BSTAR":"0.00001562400000"},{"ARG_OF_PERICENTER":"121.8050","PERIAPSIS":"562.487","OBJECT_TYPE":"PAYLOAD","SITE":"AFWTR","MEAN_ANOMALY":"238.3244","RCS_SIZE":"LARGE","REF_FRAME":"TEME","APOAPSIS":"563.480","OBJECT_ID":"2022-105U","CENTER_NAME":"EARTH","EPHEMERIS_TYPE":"0","TLE_LINE1":"1 53666U 22105U   23099.90875851 -.00000870  00000-0 -63115-4 0  9999","MEAN_MOTION":"15.01269285","CLASSIFICATION_TYPE":"U","COUNTRY_CODE":"US","TLE_LINE2":"2 53666  97.6553 341.9449 0000715 121.8050 238.3244 15.01269285 33480","SEMIMAJOR_AXIS":"6941.118","EPOCH":"2023-04-09T21:48:36.735264","RA_OF_ASC_NODE":"341.9449","DECAY_DATE":null,"LAUNCH_DATE":"2022-08-31","OBJECT_NAME":"STARLINK-4449","MEAN_ELEMENT_THEORY":"SGP4","PERIOD":"95.919","FILE":"3884641","MEAN_MOTION_DOT":"-0.00000870","ELEMENT_SET_NO":"999","TIME_SYSTEM":"UTC","NORAD_CAT_ID":"53666","REV_AT_EPOCH":"3348","GP_ID":"229810881","INCLINATION":"97.6553","MEAN_MOTION_DDOT":"0.0000000000000","ECCENTRICITY":"0.00007150","BSTAR":"-0.00006311500000"},{"BSTAR":"0.00004473800000","GP_ID":"229811125","REV_AT_EPOCH":"3348","NORAD_CAT_ID":"53667","ECCENTRICITY":"0.00017880","INCLINATION":"97.6547","MEAN_MOTION_DDOT":"0.0000000000000","PERIOD":"95.919","MEAN_ELEMENT_THEORY":"SGP4","ELEMENT_SET_NO":"999","TIME_SYSTEM":"UTC","FILE":"3884641","MEAN_MOTION_DOT":"0.00000516","RA_OF_ASC_NODE":"341.9556","SEMIMAJOR_AXIS":"6941.140","EPOCH":"2023-04-09T21:58:55.975296","LAUNCH_DATE":"2022-08-31","OBJECT_NAME":"STARLINK-4406","DECAY_DATE":null,"MEAN_MOTION":"15.01262167","TLE_LINE1":"1 53667U 22105V   23099.91592564  .00000516  00000-0  44738-4 0  9993","TLE_LINE2":"2 53667  97.6547 341.9556 0001788  96.4999 263.6429 15.01262167 33481","CLASSIFICATION_TYPE":"U","COUNTRY_CODE":"US","CENTER_NAME":"EARTH","EPHEMERIS_TYPE":"0","MEAN_ANOMALY":"263.6429","RCS_SIZE":"LARGE","REF_FRAME":"TEME","APOAPSIS":"564.246","OBJECT_ID":"2022-105V","PERIAPSIS":"561.764","OBJECT_TYPE":"PAYLOAD","ARG_OF_PERICENTER":"96.4999","SITE":"AFWTR"}];
